ONEWEB-0395             
1 50475U 21132G   26178.54341270  .00000535  00000+0  14725-2 0  9993
2 50475  87.8879  19.0049 0002085  87.8942 272.2425 13.11416583217070
ONEWEB-0396             
1 50476U 21132H   26178.86583310 -.00000008  00000+0 -53721-4 0  9990
2 50476  87.9178 333.3303 0001827  89.1898 270.9444 13.18685394223042
ONEWEB-0397             
1 50477U 21132J   26178.88100767  .00000031  00000+0  45298-4 0  9998
2 50477  87.9177 333.3274 0001719  88.3999 271.7330 13.18686022223022
ONEWEB-0398             
1 50478U 21132K   26178.81636861 -.00000550  00000+0 -15871-2 0  9991
2 50478  87.8888  18.9422 0002076  93.1166 267.0200 13.11417050217000
ONEWEB-0399             
1 50479U 21132L   26178.80281067 -.00000271  00000+0 -80130-3 0  9996
2 50479  87.8886  18.9559 0001940  73.3310 286.8031 13.11415507216993
ONEWEB-0400             
1 50480U 21132M   26178.85908970  .00000027  00000+0  35026-4 0  9994
2 50480  87.9180 333.3215 0002011  97.9064 262.2297 13.18686114223018
ONEWEB-0401             
1 50481U 21132N   26178.90461552  .00000000  00000+0 -33569-4 0  9993
2 50481  87.9181 333.3098 0001592  95.3203 264.8111 13.18686237223029
ONEWEB-0402             
1 50482U 21132P   26178.86752135  .00000029  00000+0  40452-4 0  9998
2 50482  87.9177 333.3063 0001368  92.0354 268.0935 13.18686569223049
ONEWEB-0403             
1 50483U 21132Q   26178.89281312 -.00000041  00000+0 -13600-3 0  9996
2 50483  87.9180 333.3255 0001932  91.0852 269.0502 13.18685199223001
ONEWEB-0404             
1 50484U 21132R   26178.78416083  .00000512  00000+0  14083-2 0  9996
2 50484  87.8883  18.9574 0002058  81.0963 279.0398 13.11417114217081
ONEWEB-0405             
1 50485U 21132S   26178.83040094  .00000020  00000+0  18297-4 0  9995
2 50485  87.9181 333.3228 0002117 103.9338 256.2030 13.18667276223394
ONEWEB-0406             
1 50486U 21132T   26178.89786955  .00000005  00000+0 -19268-4 0  9998
2 50486  87.9175 333.3252 0002149  81.7554 278.3822 13.18686121223038
ONEWEB-0407             
1 50487U 21132U   26178.89112992  .00000027  00000+0  34896-4 0  9990
2 50487  87.9180 333.3190 0001748 101.1445 258.9884 13.18687749222977
ONEWEB-0409             
1 50488U 21132V   26178.85876684  .00000498  00000+0  13696-2 0  9997
2 50488  87.8888  18.9310 0002080  84.2275 275.9090 13.11415459216986
ONEWEB-0412             
1 50489U 21132W   26178.87932057 -.00000022  00000+0 -89213-4 0  9992
2 50489  87.9176 333.3295 0001557  93.6636 266.4674 13.18685505223065
ONEWEB-0413             
1 50490U 21132X   26178.88438919  .00000020  00000+0  18350-4 0  9993
2 50490  87.9168 333.3265 0001556  99.0214 261.1095 13.18687021223004
ONEWEB-0414             
1 50491U 21132Y   26178.86920661  .00000003  00000+0 -26275-4 0  9999
2 50491  87.9178 333.3122 0001725  90.7164 269.4166 13.18685996223030
ONEWEB-0417             
1 50492U 21132Z   26178.87763512  .00000010  00000+0 -67430-5 0  9998
2 50492  87.9169 333.3294 0002012  90.2424 269.8939 13.18686046223012
ONEWEB-0418             
1 50493U 21132AA  26178.88760583  .00000034  00000+0  54196-4 0  9994
2 50493  87.9174 333.3279 0002051  89.4162 270.7206 13.18685496223076
ONEWEB-0419             
1 50494U 21132AB  26178.83049568  .00000037  00000+0  60293-4 0  9991
2 50494  87.9178 333.3388 0002158  95.3922 264.7456 13.18666310222983
ONEWEB-0420             
1 50495U 21132AC  26178.87088376  .00000018  00000+0  13571-4 0  9992
2 50495  87.9170 333.3328 0001789 100.9957 259.1377 13.18686233222986
ONEWEB-0421             
1 50496U 21132AD  26178.86415039 -.00000051  00000+0 -16215-3 0  9998
2 50496  87.9173 333.3322 0001572  85.4530 274.6781 13.18685166223029
ONEWEB-0424             
1 50497U 21132AE  26178.90124470  .00000007  00000+0 -14302-4 0  9996
2 50497  87.9178 333.3233 0002190  98.0502 262.0878 13.18686022223055
ONEWEB-0426             
1 50498U 21132AF  26178.85992675  .00000003  00000+0 -25551-4 0  9995
2 50498  87.9178 333.3226 0001895  73.6510 286.4830 13.18685009222991
ONEWEB-0427             
1 50499U 21132AG  26178.89955953 -.00000035  00000+0 -12028-3 0  9998
2 50499  87.9181 333.3037 0001972  89.6713 270.4645 13.18685819223025
ONEWEB-0429             
1 50500U 21132AH  26178.88606410 -.00000020  00000+0 -82750-4 0  9995
2 50500  87.9172 333.3299 0001783  98.4190 261.7144 13.18685971222996
ONEWEB-0430             
1 50501U 21132AJ  26178.87426901  .00001041  00000+0  26065-2 0  9997
2 50501  87.9171 333.3308 0001777 103.9786 256.1544 13.18682422223039
ONEWEB-0432             
1 50502U 21132AK  26178.85405310 -.00000032  00000+0 -11720-3 0  9991
2 50502  87.9178 333.3189 0002397 103.6823 256.4576 13.17155200222981
ONEWEB-0440             
1 50503U 21132AL  26178.89449534  .00000005  00000+0 -20842-4 0  9997
2 50503  87.9179 333.3236 0001504  94.8425 265.2879 13.18686053222984
ONEWEB-0450             
1 50504U 21132AM  26178.88789194 -.00000032  00000+0 -11420-3 0  9998
2 50504  87.9168 333.3289 0001790 101.2633 258.8701 13.18686332223019
