OBJECT_NAME,OBJECT_ID,EPOCH,MEAN_MOTION,ECCENTRICITY,INCLINATION,RA_OF_ASC_NODE,ARG_OF_PERICENTER,MEAN_ANOMALY,EPHEMERIS_TYPE,CLASSIFICATION_TYPE,NORAD_CAT_ID,ELEMENT_SET_NO,REV_AT_EPOCH,BSTAR,MEAN_MOTION_DOT,MEAN_MOTION_DDOT
ONEWEB-0395,2021-132G,2026-06-27T13:02:30.857280,13.11416583,.00020856,87.8879,19.0049,87.8942,272.2425,0,U,50475,999,21707,.14725027E-2,.535E-5,0
ONEWEB-0396,2021-132H,2026-06-27T20:46:47.979840,13.18685394,.00018272,87.9178,333.3303,89.1898,270.9444,0,U,50476,999,22304,-.53720756E-4,-.8E-7,0
ONEWEB-0397,2021-132J,2026-06-27T21:08:39.062688,13.18686022,.00017191,87.9177,333.3274,88.3999,271.7330,0,U,50477,999,22302,.45297946E-4,.31E-6,0
ONEWEB-0398,2021-132K,2026-06-27T19:35:34.247904,13.11417050,.00020767,87.8888,18.9422,93.1166,267.0200,0,U,50478,999,21700,-.1587124E-2,-.55E-5,0
ONEWEB-0399,2021-132L,2026-06-27T19:16:02.841888,13.11415507,.00019404,87.8886,18.9559,73.3310,286.8031,0,U,50479,999,21699,-.80129968E-3,-.271E-5,0
ONEWEB-0400,2021-132M,2026-06-27T20:37:05.350080,13.18686114,.0002011,87.9180,333.3215,97.9064,262.2297,0,U,50480,999,22301,.35025708E-4,.27E-6,0
ONEWEB-0401,2021-132N,2026-06-27T21:42:38.780928,13.18686237,.0001592,87.9181,333.3098,95.3203,264.8111,0,U,50481,999,22302,-.33568702E-4,0,0
ONEWEB-0402,2021-132P,2026-06-27T20:49:13.844640,13.18686569,.00013682,87.9177,333.3063,92.0354,268.0935,0,U,50482,999,22304,.4045174E-4,.29E-6,0
ONEWEB-0403,2021-132Q,2026-06-27T21:25:39.053568,13.18685199,.00019326,87.9180,333.3255,91.0852,269.0502,0,U,50483,999,22300,-.13599641E-3,-.41E-6,0
ONEWEB-0404,2021-132R,2026-06-27T18:49:11.495712,13.11417114,.00020587,87.8883,18.9574,81.0963,279.0398,0,U,50484,999,21708,.14082602E-2,.512E-5,0
ONEWEB-0405,2021-132S,2026-06-27T19:55:46.641216,13.18667276,.00021179,87.9181,333.3228,103.9338,256.2030,0,U,50485,999,22339,.18297418E-4,.2E-6,0
ONEWEB-0406,2021-132T,2026-06-27T21:32:55.929120,13.18686121,.00021499,87.9175,333.3252,81.7554,278.3822,0,U,50486,999,22303,-.19268348E-4,.5E-7,0
ONEWEB-0407,2021-132U,2026-06-27T21:23:13.625088,13.18687749,.00017483,87.9180,333.3190,101.1445,258.9884,0,U,50487,999,22297,.34896228E-4,.27E-6,0
ONEWEB-0409,2021-132V,2026-06-27T20:36:37.454976,13.11415459,.00020804,87.8888,18.9310,84.2275,275.9090,0,U,50488,999,21698,.13695665E-2,.498E-5,0
ONEWEB-0412,2021-132W,2026-06-27T21:06:13.297248,13.18685505,.00015574,87.9176,333.3295,93.6636,266.4674,0,U,50489,999,22306,-.89213454E-4,-.22E-6,0
ONEWEB-0413,2021-132X,2026-06-27T21:13:31.226016,13.18687021,.00015569,87.9168,333.3265,99.0214,261.1095,0,U,50490,999,22300,.18349953E-4,.2E-6,0
ONEWEB-0414,2021-132Y,2026-06-27T20:51:39.451104,13.18685996,.00017257,87.9178,333.3122,90.7164,269.4166,0,U,50491,999,22303,-.26275297E-4,.3E-7,0
ONEWEB-0417,2021-132Z,2026-06-27T21:03:47.674368,13.18686046,.00020125,87.9169,333.3294,90.2424,269.8939,0,U,50492,999,22301,-.6742951E-5,.1E-6,0
ONEWEB-0418,2021-132AA,2026-06-27T21:18:09.143712,13.18685496,.00020511,87.9174,333.3279,89.4162,270.7206,0,U,50493,999,22307,.5419578E-4,.34E-6,0
ONEWEB-0419,2021-132AB,2026-06-27T19:55:54.826752,13.18666310,.00021581,87.9178,333.3388,95.3922,264.7456,0,U,50494,999,22298,.60293424E-4,.37E-6,0
ONEWEB-0420,2021-132AC,2026-06-27T20:54:04.356864,13.18686233,.00017892,87.9170,333.3328,100.9957,259.1377,0,U,50495,999,22298,.13570562E-4,.18E-6,0
ONEWEB-0421,2021-132AD,2026-06-27T20:44:22.593696,13.18685166,.00015722,87.9173,333.3322,85.4530,274.6781,0,U,50496,999,22302,-.16214734E-3,-.51E-6,0
ONEWEB-0424,2021-132AE,2026-06-27T21:37:47.542080,13.18686022,.00021905,87.9178,333.3233,98.0502,262.0878,0,U,50497,999,22305,-.14302144E-4,.7E-7,0
ONEWEB-0426,2021-132AF,2026-06-27T20:38:17.671200,13.18685009,.0001895,87.9178,333.3226,73.6510,286.4830,0,U,50498,999,22299,-.25551366E-4,.3E-7,0
ONEWEB-0427,2021-132AG,2026-06-27T21:35:21.943392,13.18685819,.00019725,87.9181,333.3037,89.6713,270.4645,0,U,50499,999,22302,-.12027524E-3,-.35E-6,0
ONEWEB-0429,2021-132AH,2026-06-27T21:15:55.938240,13.18685971,.00017838,87.9172,333.3299,98.4190,261.7144,0,U,50500,999,22299,-.82750265E-4,-.2E-6,0
ONEWEB-0430,2021-132AJ,2026-06-27T20:58:56.842464,13.18682422,.00017777,87.9171,333.3308,103.9786,256.1544,0,U,50501,999,22303,.26064759E-2,.1041E-4,0
ONEWEB-0432,2021-132AK,2026-06-27T20:29:50.187840,13.17155200,.00023974,87.9178,333.3189,103.6823,256.4576,0,U,50502,999,22298,-.1172007E-3,-.32E-6,0
ONEWEB-0440,2021-132AL,2026-06-27T21:28:04.397376,13.18686053,.00015049,87.9179,333.3236,94.8425,265.2879,0,U,50503,999,22298,-.20842375E-4,.5E-7,0
ONEWEB-0450,2021-132AM,2026-06-27T21:18:33.863616,13.18686332,.00017907,87.9168,333.3289,101.2633,258.8701,0,U,50504,999,22301,-.11420385E-3,-.32E-6,0
